#aV2015  5 12  0  0  0.00000000     288 DD+AD WGS84 FIT  NGA
## 1844 172800.00000000   300.00000000 57154 0.0000000000000
+   31     1  2  3  4  5  6  7  9 10 11 12 13 14 15 16 17 18
+         19 20 21 22 23 24 25 26 27 28 29 30 31 32  0  0  0
+          0  0  0  0  0  0  0  0  0  0  0  0  0  0  0  0  0
+          0  0  0  0  0  0  0  0  0  0  0  0  0  0  0  0  0
+          0  0  0  0  0  0  0  0  0  0  0  0  0  0  0  0  0
++         2  2  2  2  2  2  2  2  2  2  2  2  2  2  2  2  2
++         2  2  2  2  2  2  2  2  2  2  2  2  2  2  0  0  0
++         0  0  0  0  0  0  0  0  0  0  0  0  0  0  0  0  0
++         0  0  0  0  0  0  0  0  0  0  0  0  0  0  0  0  0
++         0  0  0  0  0  0  0  0  0  0  0  0  0  0  0  0  0
%c cc cc ccc ccc cccc cccc cccc cccc ccccc ccccc ccccc ccccc
%c cc cc ccc ccc cccc cccc cccc cccc ccccc ccccc ccccc ccccc
%f  0.0000000  0.000000000  0.00000000000  0.000000000000000
%f  0.0000000  0.000000000  0.00000000000  0.000000000000000
%i    0    0    0    0      0      0      0      0         0
%i    0    0    0    0      0      0      0      0         0
/*      NGA, ST. LOUIS,MO.                                  
/*   EPHEMERIS COMPUTED FROM  1 DAYS OF DATA                
/*   EPOCHA SMOOTHER                                       
/* CCCCCCCCCCCCCCCCCCCCCCCCCCCCCCCCCCCCCCCCCCCCCCCCCCCCCCCCC
*  2015  5 12  6 15  0.00000000
P  1   5409.774927  14352.217794 -21744.111866     -5.688610                    
V  1 -26842.229471   5869.100174  -2626.796404      0.004756                    
P  2  16250.554856 -15104.839575  14629.238810    565.320895                    
V  2  18301.871680  -1784.074676 -23202.257176      0.023421                    
P  3  12082.653798  22053.474841  -8475.015595    324.631393                    
V  3  -9252.112012  -6170.097748 -29236.400905      0.105366                    
P  4  -5025.771670  16531.511488 -20430.021256    -14.418560                    
V  4 -24972.379292   4644.122382  10326.382990     -0.014844                    
P  5   5432.949492 -15870.864995  20501.656195   -242.656352                    
V  5  18616.174270  18524.663162   9566.547604      0.046579                    
P  6  25736.026401  -6465.296747   1060.693296    158.458345                    
V  6   1918.274962   2439.571958 -31742.093143      0.093095                    
P  7  19423.382366   7852.419556  16644.311297    461.554339                    
V  7 -20130.825685   5317.644569  20749.170486      0.025460                    
P  9   9883.264928  14806.358352  19696.854041   -154.415582                    
V  9  -8659.193195  23532.385000 -13357.126060     -0.065253                    
P 10  19634.245908   2831.470551  17471.184569   -174.524201                    
V 10  13901.367670  18232.974635 -17759.746501     -0.015521                    
P 11    557.607715  18356.365557 -19685.546148   -577.616606                    
V 11 -21408.132687  11433.808427  10469.117194     -0.026023                    
P 12  -9067.949437 -22466.092281 -11242.949846    292.235160                    
V 12  10060.787596   9850.714292 -27827.478920      0.031700                    
P 13  12861.777096 -23019.661426   3551.372071   -113.681571                    
V 13    175.461548   5184.632815  31555.460005     -0.033293                    
P 14 -16685.448091   4860.104168 -19799.757648     64.158737                    
V 14   8498.223658 -24282.793923 -13115.446093     -0.028135                    
P 15   2355.539649 -25651.240216  -5832.807124   -248.726676                    
V 15   5561.530745  -6168.801805  30150.483944     -0.021661                    
P 16  -6249.820674  14471.875972  21225.282556   -129.998253                    
V 16 -17506.847985 -20743.862716   9319.510089      0.037451                    
P 17  16262.214825  -4339.340526 -20199.932479   -170.746193                    
V 17  -8070.938763  25088.803763 -11917.983311     -0.018566                    
P 18 -21273.865839 -13835.475707  -7837.917990    400.800831                    
V 18  -4737.501393 -10102.608193  28566.007930      0.029214                    
P 19  -7402.171630  24914.323618  -4256.965859   -510.159349                    
V 19  -4689.678150   3699.648648  31637.900464     -0.011450                    
P 20   4982.700476 -16245.602782  20246.997270    319.093344                    
V 20  19834.278583  17179.030557   8919.929616      0.037030                    
P 21 -21547.601504  -6407.482192  15121.743683   -445.226560                    
V 21  16935.691259  -6265.807432  22175.021057     -0.035545                    
P 22 -20265.552530  -2940.873658 -16773.033233    349.383289                    
V 22 -13256.622734 -17470.668871  18641.314692      0.040525                    
P 23   3016.699501  22464.955686  13623.007617   -107.788865                    
V 23  -7910.359914  15587.245386 -24643.106060     -0.024564                    
P 24  -2207.826776 -15271.453041 -21650.105957    -48.120389                    
V 24  26752.554939  -6087.273015   1712.168703     -0.005929                    
P 25 -18098.395875 -19562.599552    270.666433    -28.346017                    
V 25   1259.046013  -1769.880013 -32023.463070     -0.037679                    
P 26 -14485.224703   6294.648545  21344.693229     28.861672                    
V 26 -17927.215988 -20365.847347  -6151.864652      0.025598                    
P 27 -12269.579765  22326.845259   7285.110325     71.337773                    
V 27    339.870920  -9633.545304  30143.112048      0.026993                    
P 28  19663.428986   9270.375452 -14701.924039    439.230066                    
V 28  10987.160937  16404.573836  23956.918367      0.026804                    
P 29  -7318.759465 -17146.733584  18963.262269    609.959380                    
V 29   9585.176047 -22006.719766 -16170.316956      0.023563                    
P 30  25474.809990   1670.195755   7435.223423    -60.695140                    
V 30  -8964.484159   4053.791430  29692.931252      0.051066                    
P 31 -25147.139560   7890.476231   4674.000917    316.143612                    
V 31  -5978.639231   -937.542642 -31120.771406     -0.010663                    
P 32  -1089.312631  19755.556438 -17983.537516   -153.406690                    
V 32 -15027.303493 -17008.133636 -17252.847299      0.096249                    
EOF
